GSAT0101 (PRN E11)      
1 37846U 11060A   21333.81208737 -.00000069  00000+0  00000+0 0  9998
2 37846  56.9156  26.7717 0001737 311.4005  48.6459  1.70474952 62816
GSAT0102 (PRN E12)      
1 37847U 11060B   21334.48764293 -.00000069  00000+0  00000+0 0  9997
2 37847  56.9169  26.7530 0003745 295.9597 165.1240  1.70475224 62958
GSAT0103 (PRN E19)      
1 38857U 12055A   21335.02584234  .00000106  00000+0  00000+0 0  9991
2 38857  55.0842 147.1559 0001582 225.0226 134.9924  1.70473652 56721
GSAT0104 (PRN E20)      
1 38858U 12055B   21334.40969858  .00000107  00000+0  00000+0 0  9993
2 38858  55.0842 147.1743 0001649 126.7305 233.3149  1.70473955 56714
GSAT0201 (PRN E18)      
1 40128U 14050A   21334.85740573 -.00000070  00000+0  00000+0 0  9993
2 40128  50.3993 340.1951 1635722 117.1262 260.5304  1.85519300 47536
GSAT0202 (PRN E14)      
1 40129U 14050B   21334.58014683 -.00000069  00000+0  00000+0 0  9998
2 40129  50.4276 339.2608 1632846 117.9255 259.5990  1.85519974 49699
GSAT0203 (PRN E26)      
1 40544U 15017A   21334.18035716 -.00000069  00000+0  00000+0 0  9999
2 40544  56.7110  26.8221 0004973 246.6979 113.3114  1.70476186 40903
GSAT0204 (PRN E22)      
1 40545U 15017B   21333.25961174 -.00000069  00000+0  00000+0 0  9993
2 40545  56.7163  26.8590 0004739 233.9053 126.1111  1.70475662  3932
GSAT0205 (PRN E24)      
1 40889U 15045A   21334.78669179 -.00000019  00000+0  00000+0 0  9999
2 40889  55.7590 267.4514 0005498   0.8332 359.1692  1.70474541 38721
GSAT0206 (PRN E30)      
1 40890U 15045B   21333.24675729 -.00000015  00000+0  00000+0 0  9995
2 40890  55.7591 267.4900 0004027 346.2764  13.7172  1.70472777 38721
GSAT0209 (PRN E09)      
1 41174U 15079A   21335.18235906  .00000105  00000+0  00000+0 0  9991
2 41174  55.1002 146.8535 0002108 345.7589  14.2614  1.70473203 36493
GSAT0208 (PRN E08)      
1 41175U 15079B   21334.81543454  .00000106  00000+0  00000+0 0  9992
2 41175  55.0990 146.8625 0001517   2.3330 357.6958  1.70473219 36900
GSAT0211 (PRN E02)      
1 41549U 16030A   21334.93494980 -.00000019  00000+0  00000+0 0  9991
2 41549  55.9027 267.3552 0005091 325.9875  33.9814  1.70474283 34389
GSAT0210 (PRN E01)      
1 41550U 16030B   21334.05449717 -.00000017  00000+0  00000+0 0  9992
2 41550  55.9028 267.3811 0004241 302.2367  57.7249  1.70474433 34361
GSAT0207 (PRN E07)      
1 41859U 16069A   21335.47485351  .00000103  00000+0  00000+0 0  9992
2 41859  54.7600 147.0758 0001623 315.1680  44.8440  1.70473165 31124
GSAT0212 (PRN E03)      
1 41860U 16069B   21334.74170322  .00000106  00000+0  00000+0 0  9995
2 41860  54.7571 147.0941 0001855  24.4882 335.5496  1.70473155 31364
GSAT0213 (PRN E04)      
1 41861U 16069C   21334.52061768  .00000106  00000+0  00000+0 0  9995
2 41861  54.7596 147.1050 0001304 247.2286 112.7875  1.70473278 31223
GSAT0214 (PRN E05)      
1 41862U 16069D   21334.66773524  .00000106  00000+0  00000+0 0  9991
2 41862  54.7581 147.0957 0000440 230.2249 129.8005  1.70473254 31356
GSAT0215 (PRN E21)      
1 43055U 17079A   21335.15811352 -.00000019  00000+0  00000+0 0  9990
2 43055  55.8778 267.1848 0003513 301.9264  58.0414  1.70473491 24703
GSAT0216 (PRN E25)      
1 43056U 17079B   21334.86389737 -.00000019  00000+0  00000+0 0  9995
2 43056  55.8785 267.1925 0005215 294.3833  65.5642  1.70473638 24682
GSAT0217 (PRN E27)      
1 43057U 17079C   21335.08408081 -.00000019  00000+0  00000+0 0  9995
2 43057  55.8762 267.1863 0005036 306.1556  53.7997  1.70473587 24702
GSAT0218 (PRN E31)      
1 43058U 17079D   21334.71750907 -.00000018  00000+0  00000+0 0  9991
2 43058  55.8767 267.1940 0005536 289.8045  70.1378  1.70473606 24729
GSAT0221 (PRN E15)      
1 43564U 18060A   21334.61588796 -.00000069  00000+0  00000+0 0  9994
2 43564  57.0944  26.5749 0005197 262.7425  97.2615  1.70475986 20870
GSAT0222 (PRN E33)      
1 43565U 18060B   21334.83572665 -.00000069  00000+0  00000+0 0  9997
2 43565  57.0973  26.5692 0004741 268.7556  91.2535  1.70475921 20925
GSAT0219 (PRN E36)      
1 43566U 18060C   21335.05630722 -.00000069  00000+0  00000+0 0  9992
2 43566  57.0973  26.5651 0004376 267.9736  92.0402  1.70475980 20901
GSAT0220 (PRN E13)      
1 43567U 18060D   21333.51651464 -.00000069  00000+0  00000+0 0  9998
2 43567  57.0962  26.6082 0004626 263.6475  96.3611  1.70475791 20864
